SL-14 R/B               
1 21423U 91042B   26044.04310331  .00000424  00000+0  50684-4 0  9995
2 21423  82.4898 243.2991 0016237 326.6279  33.3910 14.81805031849424
ERS-1                   
1 21574U 91050A   26044.02077356  .00000377  00000+0  13536-3 0  9997
2 21574  98.7894  61.6349 0030887 275.6582  84.1083 14.39429208812182
ARIANE 40 R/B           
1 21610U 91050F   26044.13038429  .00000320  00000+0  10831-3 0  9991
2 21610  98.2066  97.2821 0004034 135.0652 225.0866 14.42875241815455
INTERCOSMOS 25          
1 21819U 91086A   26044.21961050  .00001583  00000+0  30691-3 0  9993
2 21819  82.6086 324.7950 1486859 169.6475 193.9220 12.11932213493728
SL-8 R/B                
1 21876U 92008B   26044.22813027  .00000032  00000+0  17502-4 0  9997
2 21876  82.9258 285.9769 0034046 201.0641 279.2536 13.75969704706050
SL-8 R/B                
1 21938U 92020B   26043.89942681  .00000112  00000+0  99930-4 0  9995
2 21938  82.9336 172.1616 0029038   9.7036 107.4052 13.75546056697729
USA 81                  
1 21949U 92023A   26044.27838195  .00000213  00000+0  71489-4 0  9998
2 21949  85.0119 145.5175 0002719  99.1040 261.0461 14.32359136 91299
COSMOS 2219             
1 22219U 92076A   26044.25772149  .00000081  00000+0  67340-4 0  9995
2 22219  71.0577  69.1445 0020148 240.2193 119.6926 14.14076975714921
SL-16 R/B               
1 22220U 92076B   26043.99617392 -.00000138  00000+0 -44725-4 0  9992
2 22220  70.9977 240.3901 0011278 140.8341 328.9660 14.16855832718337
COSMOS 2221             
1 22236U 92080A   26044.22615473  .00001831  00000+0  16038-3 0  9993
2 22236  82.5054 302.5113 0012758 276.7275  83.2495 14.96104355777139
SL-16 R/B               
1 22285U 92093B   26044.21695186  .00000184  00000+0  11871-3 0  9999
2 22285  71.0200  55.6410 0005289 319.9235  40.1497 14.15441871709690
COSMOS 2228             
1 22286U 92094A   26044.19168765  .00002076  00000+0  17725-3 0  9992
2 22286  82.5153 260.7702 0018772  28.5625 331.6622 14.97074333772395
