CCSDS_OMM_VERS = 2.0
CREATION_DATE  = 
ORIGINATOR     = 

OBJECT_NAME    = SL-14 R/B
OBJECT_ID      = 1991-042B
CENTER_NAME    = EARTH
REF_FRAME      = TEME
TIME_SYSTEM    = UTC
MEAN_ELEMENT_THEORY = SGP/SGP4

EPOCH          = 2026-02-13T01:02:04.125984
MEAN_MOTION    = 14.81805031
ECCENTRICITY   = .00162378
INCLINATION    = 82.4898
RA_OF_ASC_NODE = 243.2991
ARG_OF_PERICENTER = 326.6279
MEAN_ANOMALY   = 33.3910

EPHEMERIS_TYPE = 0
CLASSIFICATION_TYPE = U
NORAD_CAT_ID   = 21423
ELEMENT_SET_NO = 999
REV_AT_EPOCH   = 84942
BSTAR          = .50683679E-4
MEAN_MOTION_DOT = .424E-5
MEAN_MOTION_DDOT = 0

CCSDS_OMM_VERS = 2.0
CREATION_DATE  = 
ORIGINATOR     = 

OBJECT_NAME    = ERS-1
OBJECT_ID      = 1991-050A
CENTER_NAME    = EARTH
REF_FRAME      = TEME
TIME_SYSTEM    = UTC
MEAN_ELEMENT_THEORY = SGP/SGP4

EPOCH          = 2026-02-13T00:29:54.835584
MEAN_MOTION    = 14.39429208
ECCENTRICITY   = .0030887
INCLINATION    = 98.7894
RA_OF_ASC_NODE = 61.6349
ARG_OF_PERICENTER = 275.6582
MEAN_ANOMALY   = 84.1083

EPHEMERIS_TYPE = 0
CLASSIFICATION_TYPE = U
NORAD_CAT_ID   = 21574
ELEMENT_SET_NO = 999
REV_AT_EPOCH   = 81218
BSTAR          = .13535509E-3
MEAN_MOTION_DOT = .377E-5
MEAN_MOTION_DDOT = 0

CCSDS_OMM_VERS = 2.0
CREATION_DATE  = 
ORIGINATOR     = 

OBJECT_NAME    = ARIANE 40 R/B
OBJECT_ID      = 1991-050F
CENTER_NAME    = EARTH
REF_FRAME      = TEME
TIME_SYSTEM    = UTC
MEAN_ELEMENT_THEORY = SGP/SGP4

EPOCH          = 2026-02-13T03:07:45.202656
MEAN_MOTION    = 14.42875241
ECCENTRICITY   = .00040349
INCLINATION    = 98.2066
RA_OF_ASC_NODE = 97.2821
ARG_OF_PERICENTER = 135.0652
MEAN_ANOMALY   = 225.0866

EPHEMERIS_TYPE = 0
CLASSIFICATION_TYPE = U
NORAD_CAT_ID   = 21610
ELEMENT_SET_NO = 999
REV_AT_EPOCH   = 81545
BSTAR          = .10830732E-3
MEAN_MOTION_DOT = .32E-5
MEAN_MOTION_DDOT = 0

CCSDS_OMM_VERS = 2.0
CREATION_DATE  = 
ORIGINATOR     = 

OBJECT_NAME    = INTERCOSMOS 25
OBJECT_ID      = 1991-086A
CENTER_NAME    = EARTH
REF_FRAME      = TEME
TIME_SYSTEM    = UTC
MEAN_ELEMENT_THEORY = SGP/SGP4

EPOCH          = 2026-02-13T05:16:14.347200
MEAN_MOTION    = 12.11932213
ECCENTRICITY   = .14868598
INCLINATION    = 82.6086
RA_OF_ASC_NODE = 324.7950
ARG_OF_PERICENTER = 169.6475
MEAN_ANOMALY   = 193.9220

EPHEMERIS_TYPE = 0
CLASSIFICATION_TYPE = U
NORAD_CAT_ID   = 21819
ELEMENT_SET_NO = 999
REV_AT_EPOCH   = 49372
BSTAR          = .30691447E-3
MEAN_MOTION_DOT = .1583E-4
MEAN_MOTION_DDOT = 0

CCSDS_OMM_VERS = 2.0
CREATION_DATE  = 
ORIGINATOR     = 

OBJECT_NAME    = SL-8 R/B
OBJECT_ID      = 1992-008B
CENTER_NAME    = EARTH
REF_FRAME      = TEME
TIME_SYSTEM    = UTC
MEAN_ELEMENT_THEORY = SGP/SGP4

EPOCH          = 2026-02-13T05:28:30.455328
MEAN_MOTION    = 13.75969704
ECCENTRICITY   = .00340469
INCLINATION    = 82.9258
RA_OF_ASC_NODE = 285.9769
ARG_OF_PERICENTER = 201.0641
MEAN_ANOMALY   = 279.2536

EPHEMERIS_TYPE = 0
CLASSIFICATION_TYPE = U
NORAD_CAT_ID   = 21876
ELEMENT_SET_NO = 999
REV_AT_EPOCH   = 70605
BSTAR          = .17501584E-4
MEAN_MOTION_DOT = .32E-6
MEAN_MOTION_DDOT = 0

CCSDS_OMM_VERS = 2.0
CREATION_DATE  = 
ORIGINATOR     = 

OBJECT_NAME    = SL-8 R/B
OBJECT_ID      = 1992-020B
CENTER_NAME    = EARTH
REF_FRAME      = TEME
TIME_SYSTEM    = UTC
MEAN_ELEMENT_THEORY = SGP/SGP4

EPOCH          = 2026-02-12T21:35:10.476384
MEAN_MOTION    = 13.75546056
ECCENTRICITY   = .0029038
INCLINATION    = 82.9336
RA_OF_ASC_NODE = 172.1616
ARG_OF_PERICENTER = 9.7036
MEAN_ANOMALY   = 107.4052

EPHEMERIS_TYPE = 0
CLASSIFICATION_TYPE = U
NORAD_CAT_ID   = 21938
ELEMENT_SET_NO = 999
REV_AT_EPOCH   = 69772
BSTAR          = .9993E-4
MEAN_MOTION_DOT = .112E-5
MEAN_MOTION_DDOT = 0

CCSDS_OMM_VERS = 2.0
CREATION_DATE  = 
ORIGINATOR     = 

OBJECT_NAME    = USA 81
OBJECT_ID      = 1992-023A
CENTER_NAME    = EARTH
REF_FRAME      = TEME
TIME_SYSTEM    = UTC
MEAN_ELEMENT_THEORY = SGP/SGP4

EPOCH          = 2026-02-13T06:40:52.200480
MEAN_MOTION    = 14.32359136
ECCENTRICITY   = .00027193
INCLINATION    = 85.0119
RA_OF_ASC_NODE = 145.5175
ARG_OF_PERICENTER = 99.1040
MEAN_ANOMALY   = 261.0461

EPHEMERIS_TYPE = 0
CLASSIFICATION_TYPE = U
NORAD_CAT_ID   = 21949
ELEMENT_SET_NO = 999
REV_AT_EPOCH   = 9129
BSTAR          = .71488971E-4
MEAN_MOTION_DOT = .213E-5
MEAN_MOTION_DDOT = 0

CCSDS_OMM_VERS = 2.0
CREATION_DATE  = 
ORIGINATOR     = 

OBJECT_NAME    = COSMOS 2219
OBJECT_ID      = 1992-076A
CENTER_NAME    = EARTH
REF_FRAME      = TEME
TIME_SYSTEM    = UTC
MEAN_ELEMENT_THEORY = SGP/SGP4

EPOCH          = 2026-02-13T06:11:07.136736
MEAN_MOTION    = 14.14076975
ECCENTRICITY   = .00201484
INCLINATION    = 71.0577
RA_OF_ASC_NODE = 69.1445
ARG_OF_PERICENTER = 240.2193
MEAN_ANOMALY   = 119.6926

EPHEMERIS_TYPE = 0
CLASSIFICATION_TYPE = U
NORAD_CAT_ID   = 22219
ELEMENT_SET_NO = 999
REV_AT_EPOCH   = 71492
BSTAR          = .67340399E-4
MEAN_MOTION_DOT = .81E-6
MEAN_MOTION_DDOT = 0

CCSDS_OMM_VERS = 2.0
CREATION_DATE  = 
ORIGINATOR     = 

OBJECT_NAME    = SL-16 R/B
OBJECT_ID      = 1992-076B
CENTER_NAME    = EARTH
REF_FRAME      = TEME
TIME_SYSTEM    = UTC
MEAN_ELEMENT_THEORY = SGP/SGP4

EPOCH          = 2026-02-12T23:54:29.426688
MEAN_MOTION    = 14.16855832
ECCENTRICITY   = .0011278
INCLINATION    = 70.9977
RA_OF_ASC_NODE = 240.3901
ARG_OF_PERICENTER = 140.8341
MEAN_ANOMALY   = 328.9660

EPHEMERIS_TYPE = 0
CLASSIFICATION_TYPE = U
NORAD_CAT_ID   = 22220
ELEMENT_SET_NO = 999
REV_AT_EPOCH   = 71833
BSTAR          = -.44725E-4
MEAN_MOTION_DOT = -.138E-5
MEAN_MOTION_DDOT = 0

CCSDS_OMM_VERS = 2.0
CREATION_DATE  = 
ORIGINATOR     = 

OBJECT_NAME    = COSMOS 2221
OBJECT_ID      = 1992-080A
CENTER_NAME    = EARTH
REF_FRAME      = TEME
TIME_SYSTEM    = UTC
MEAN_ELEMENT_THEORY = SGP/SGP4

EPOCH          = 2026-02-13T05:25:39.768672
MEAN_MOTION    = 14.96104355
ECCENTRICITY   = .0012758
INCLINATION    = 82.5054
RA_OF_ASC_NODE = 302.5113
ARG_OF_PERICENTER = 276.7275
MEAN_ANOMALY   = 83.2495

EPHEMERIS_TYPE = 0
CLASSIFICATION_TYPE = U
NORAD_CAT_ID   = 22236
ELEMENT_SET_NO = 999
REV_AT_EPOCH   = 77713
BSTAR          = .16038016E-3
MEAN_MOTION_DOT = .1831E-4
MEAN_MOTION_DDOT = 0

CCSDS_OMM_VERS = 2.0
CREATION_DATE  = 
ORIGINATOR     = 

OBJECT_NAME    = SL-16 R/B
OBJECT_ID      = 1992-093B
CENTER_NAME    = EARTH
REF_FRAME      = TEME
TIME_SYSTEM    = UTC
MEAN_ELEMENT_THEORY = SGP/SGP4

EPOCH          = 2026-02-13T05:12:24.640704
MEAN_MOTION    = 14.15441871
ECCENTRICITY   = .00052893
INCLINATION    = 71.0200
RA_OF_ASC_NODE = 55.6410
ARG_OF_PERICENTER = 319.9235
MEAN_ANOMALY   = 40.1497

EPHEMERIS_TYPE = 0
CLASSIFICATION_TYPE = U
NORAD_CAT_ID   = 22285
ELEMENT_SET_NO = 999
REV_AT_EPOCH   = 70969
BSTAR          = .11870737E-3
MEAN_MOTION_DOT = .184E-5
MEAN_MOTION_DDOT = 0

CCSDS_OMM_VERS = 2.0
CREATION_DATE  = 
ORIGINATOR     = 

OBJECT_NAME    = COSMOS 2228
OBJECT_ID      = 1992-094A
CENTER_NAME    = EARTH
REF_FRAME      = TEME
TIME_SYSTEM    = UTC
MEAN_ELEMENT_THEORY = SGP/SGP4

EPOCH          = 2026-02-13T04:36:01.812960
MEAN_MOTION    = 14.97074333
ECCENTRICITY   = .00187722
INCLINATION    = 82.5153
RA_OF_ASC_NODE = 260.7702
ARG_OF_PERICENTER = 28.5625
MEAN_ANOMALY   = 331.6622

EPHEMERIS_TYPE = 0
CLASSIFICATION_TYPE = U
NORAD_CAT_ID   = 22286
ELEMENT_SET_NO = 999
REV_AT_EPOCH   = 77239
BSTAR          = .17724949E-3
MEAN_MOTION_DOT = .2076E-4
MEAN_MOTION_DDOT = 0

